[{"OBJECT_NAME":"STARLINK-5901","OBJECT_ID":"2023-042P","EPOCH":"2026-03-09T07:26:34.876032","MEAN_MOTION":15.02534235,"ECCENTRICITY":0.00011768,"INCLINATION":43.0037,"RA_OF_ASC_NODE":58.142,"ARG_OF_PERICENTER":271.1677,"MEAN_ANOMALY":88.903,"EPHEMERIS_TYPE":0,"CLASSIFICATION_TYPE":"U","NORAD_CAT_ID":55999,"ELEMENT_SET_NO":999,"REV_AT_EPOCH":16285,"BSTAR":9.787212e-6,"MEAN_MOTION_DOT":-7.1e-7,"MEAN_MOTION_DDOT":0},{"OBJECT_NAME":"CZ-6A DEB","OBJECT_ID":"2024-140ADS","EPOCH":"2026-03-09T14:05:09.302208","MEAN_MOTION":15.17885306,"ECCENTRICITY":0.0073653,"INCLINATION":89.0442,"RA_OF_ASC_NODE":281.8925,"ARG_OF_PERICENTER":121.24,"MEAN_ANOMALY":239.6089,"EPHEMERIS_TYPE":0,"CLASSIFICATION_TYPE":"U","NORAD_CAT_ID":64628,"ELEMENT_SET_NO":999,"REV_AT_EPOCH":8034,"BSTAR":0.0029018,"MEAN_MOTION_DOT":0.00063537,"MEAN_MOTION_DDOT":0}]
